{
    "satellites": [
        {
            "name": "starlink313",
            "title": "Starlink-313 (G11-12)",
            "tle": [
                "1 66173C 25240AD  25309.09493056 -.01795700  00000+0 -99101-2 0  3098",
                "2 66173  53.1517 285.7911 0000899  91.3847 241.5038 15.80774954    12"
            ],
            "stdMag": 5,
            "noradId": "66173",
            "tleUrl": "http://celestrak.org/NORAD/elements/supplemental/sup-gp.php?FILE=starlink&FORMAT=tle",
            "launchDate": "2025-10-25T14:20:50.000Z",
            "active": true,
            "batch": [
                {
                    "noradId": "66173",
                    "tle": [
                        "1 66173C 25240AD  25309.09493056 -.01795700  00000+0 -99101-2 0  3098",
                        "2 66173  53.1517 285.7911 0000899  91.3847 241.5038 15.80774954    12"
                    ]
                },
                {
                    "noradId": "66168",
                    "tle": [
                        "1 66168C 25240Y   25309.09562500 -.01743400  00000+0 -96017-2 0  3096",
                        "2 66168  53.1518 285.8006 0001000  99.7507 230.8144 15.80765856    13"
                    ]
                },
                {
                    "noradId": "66170",
                    "tle": [
                        "1 66170C 25240AA  25309.09284722 -.01760400  00000+0 -96996-2 0  3091",
                        "2 66170  53.1520 285.8102 0000623  90.3082 226.5594 15.80774283    16"
                    ]
                },
                {
                    "noradId": "66172",
                    "tle": [
                        "1 66172C 25240AC  25309.09770833 -.01731000  00000+0 -95316-2 0  3095",
                        "2 66172  53.1517 285.7942 0000815  94.4751 245.8820 15.80757107    18"
                    ]
                },
                {
                    "noradId": "66169",
                    "tle": [
                        "1 66169C 25240Z   25309.09354167 -.01722100  00000+0 -94818-2 0  3096",
                        "2 66169  53.1516 285.8190 0000598  93.8811 220.8638 15.80750350    10"
                    ]
                },
                {
                    "noradId": "66171",
                    "tle": [
                        "1 66171C 25240AB  25309.09493056 -.01775500  00000+0 -97880-2 0  3094",
                        "2 66171  53.1518 285.7951 0000888  88.3214 242.4176 15.80777780    10"
                    ]
                },
                {
                    "noradId": "66167",
                    "tle": [
                        "1 66167C 25240X   25309.09284722 -.01698900  00000+0 -93390-2 0  3097",
                        "2 66167  53.1515 285.8312 0001011 117.3066 189.2511 15.80761036    19"
                    ]
                },
                {
                    "noradId": "66166",
                    "tle": [
                        "1 66166C 25240W   25309.09423611 -.01704600  00000+0 -93706-2 0  3094",
                        "2 66166  53.1520 285.8204 0000517  90.0804 226.3303 15.80767635    14"
                    ]
                },
                {
                    "noradId": "66165",
                    "tle": [
                        "1 66165C 25240V   25309.08868056 -.01676700  00000+0 -91924-2 0  3097",
                        "2 66165  53.1516 285.8616 0000701  84.4010 194.0747 15.80798156    11"
                    ]
                },
                {
                    "noradId": "66164",
                    "tle": [
                        "1 66164C 25240U   25309.08937500 -.01685700  00000+0 -92467-2 0  3090",
                        "2 66164  53.1518 285.8537 0000858  92.6991 191.7987 15.80795248    15"
                    ]
                },
                {
                    "noradId": "66163",
                    "tle": [
                        "1 66163C 25240T   25309.08868056 -.01668800  00000+0 -91467-2 0  3099",
                        "2 66163  53.1519 285.8658 0000798  96.4899 179.9498 15.80795100    13"
                    ]
                },
                {
                    "noradId": "66162",
                    "tle": [
                        "1 66162C 25240S   25309.08798611 -.01655300  00000+0 -90563-2 0  3094",
                        "2 66162  53.1518 285.8739 0000732  82.9314 187.2424 15.80821550    11"
                    ]
                },
                {
                    "noradId": "66161",
                    "tle": [
                        "1 66161C 25240R   25309.08729167 -.01638400  00000+0 -89442-2 0  3099",
                        "2 66161  53.1521 285.8867 0000886 100.5015 161.3527 15.80852110    14"
                    ]
                },
                {
                    "noradId": "66160",
                    "tle": [
                        "1 66160C 25240Q   25309.08729167 -.01643300  00000+0 -89726-2 0  3098",
                        "2 66160  53.1519 285.8825 0000783 100.4413 163.4272 15.80853857    10"
                    ]
                },
                {
                    "noradId": "66159",
                    "tle": [
                        "1 66159C 25240P   25309.08868056 -.01629000  00000+0 -88929-2 0  3092",
                        "2 66159  53.1521 285.8843 0000706  97.9283 169.8047 15.80842736    15"
                    ]
                },
                {
                    "noradId": "66158",
                    "tle": [
                        "1 66158C 25240N   25309.09562500 -.01615500  00000+0 -88134-2 0  3095",
                        "2 66158  53.1524 285.8544 0000728 104.0919 200.8659 15.80843693    13"
                    ]
                },
                {
                    "noradId": "66157",
                    "tle": [
                        "1 66157C 25240M   25309.09423611 -.01610900  00000+0 -87831-2 0  3095",
                        "2 66157  53.1523 285.8659 0001000 110.1681 184.8307 15.80850809    14"
                    ]
                },
                {
                    "noradId": "66156",
                    "tle": [
                        "1 66156C 25240L   25309.09215278 -.01597800  00000+0 -87000-2 0  3093",
                        "2 66156  53.1521 285.8807 0000780  91.7098 189.2181 15.80868538    13"
                    ]
                },
                {
                    "noradId": "66155",
                    "tle": [
                        "1 66155C 25240K   25309.09215278 -.01585000  00000+0 -86146-2 0  3091",
                        "2 66155  53.1521 285.8857 0000764  87.0915 191.4932 15.80895052    15"
                    ]
                },
                {
                    "noradId": "66154",
                    "tle": [
                        "1 66154C 25240J   25309.11229167 -.01573900  00000+0 -85774-2 0  3097",
                        "2 66154  53.1524 285.7891 0000757  83.4129 307.8321 15.80824072    12"
                    ]
                },
                {
                    "noradId": "66153",
                    "tle": [
                        "1 66153C 25240H   25309.11020833 -.01566900  00000+0 -85319-2 0  3092",
                        "2 66153  53.1524 285.8045 0000528  87.7400 289.5494 15.80835324    17"
                    ]
                },
                {
                    "noradId": "66152",
                    "tle": [
                        "1 66152C 25240G   25309.09354167 -.01556800  00000+0 -84444-2 0  3094",
                        "2 66152  53.1520 285.8922 0000730  90.5415 189.5455 15.80909848    18"
                    ]
                },
                {
                    "noradId": "66151",
                    "tle": [
                        "1 66151C 25240F   25309.09354167 -.01546000  00000+0 -83722-2 0  3092",
                        "2 66151  53.1522 285.8972 0000777  85.5269 192.2481 15.80933980    10"
                    ]
                },
                {
                    "noradId": "66150",
                    "tle": [
                        "1 66150C 25240E   25309.09354167 -.01539500  00000+0 -83383-2 0  3091",
                        "2 66150  53.1527 285.9017 0000705  85.9958 189.8191 15.80924461    19"
                    ]
                },
                {
                    "noradId": "66149",
                    "tle": [
                        "1 66149C 25240D   25309.09493056 -.01529500  00000+0 -82748-2 0  3093",
                        "2 66149  53.1524 285.8990 0000816  95.7764 185.6779 15.80939879    15"
                    ]
                },
                {
                    "noradId": "66148",
                    "tle": [
                        "1 66148C 25240C   25309.08937500 -.01516700  00000+0 -81926-2 0  3093",
                        "2 66148  53.1525 285.9316 0000779 101.5504 146.1120 15.80960461    17"
                    ]
                },
                {
                    "noradId": "66147",
                    "tle": [
                        "1 66147C 25240B   25309.11020833 -.01506100  00000+0 -81499-2 0  3096",
                        "2 66147  53.1524 285.8316 0000582 100.2916 263.7959 15.80910863    16"
                    ]
                },
                {
                    "noradId": "66146",
                    "tle": [
                        "1 66146C 25240A   25309.09423611 -.01496500  00000+0 -80717-2 0  3097",
                        "2 66146  53.1523 285.9163 0000662  84.9854 185.9299 15.80972104    11"
                    ]
                }
            ]
        }
    ],
    "config": {}
}